NORAD_CAT_ID,OBJECT_NAME,OBJECT_TYPE,EPOCH,MEAN_MOTION,ECCENTRICITY,INCLINATION,RA_OF_ASC_NODE,ARG_OF_PERICENTER,MEAN_ANOMALY,BSTAR,MEAN_MOTION_DOT,MEAN_MOTION_DDOT,TLE_LINE0,TLE_LINE1,TLE_LINE2,SEMIMAJOR_AXIS,PERIOD,APOGEE,PERIGEE,DECAYED
53288.0,STARLINK-4162,PAYLOAD,2024-08-02 11:47:47,15.08845325,0.0001337,53.2162,286.6904,89.0186,271.0959,0.00021677,3.164e-05,0.0,0 STARLINK-4162,1 53288U 22086AY  24215.49152015  .00003164  00000-0  21677-3 0  9995,2 53288  53.2162 286.6904 0001337  89.0186 271.0959 15.08845325112837,6917.864,95.437,540.654,538.804,0.0
53288.0,STARLINK-4162,PAYLOAD,2024-08-02 21:20:06,15.08845069,0.0001317,53.2163,284.907,81.7173,278.3968,0.00023994,3.533e-05,0.0,0 STARLINK-4162,1 53288U 22086AY  24215.88896013  .00003533  00000-0  23994-3 0  9995,2 53288  53.2163 284.9070 0001317  81.7173 278.3968 15.08845069113056,6917.865,95.437,540.641,538.819,0.0
53288.0,STARLINK-4162,PAYLOAD,2024-08-03 05:17:02,15.08838166,0.0001512,53.2171,283.4217,86.0023,274.1142,0.00014263,1.983e-05,0.0,0 STARLINK-4162,1 53288U 22086AY  24216.22016273  .00001983  00000-0  14263-3 0  9992,2 53288  53.2171 283.4217 0001512  86.0023 274.1142 15.08838166112946,6917.886,95.438,540.797,538.705,0.0
53288.0,STARLINK-4162,PAYLOAD,2024-08-03 11:38:34,15.0884313,0.000159,53.2169,282.233,87.6402,272.4773,0.00039859,6.062e-05,0.0,0 STARLINK-4162,1 53288U 22086AY  24216.48512269  .00006062  00000-0  39859-3 0  9997,2 53288  53.2169 282.2330 0001590  87.6402 272.4773 15.08843130113141,6917.871,95.437,540.836,538.636,0.0
53288.0,STARLINK-4162,PAYLOAD,2024-08-03 21:10:53,15.088529,0.00016,53.2169,280.4494,88.5367,271.5808,0.0006168,9.545e-05,0.0,0 STARLINK-4162,1 53288U 22086AY  24216.88256032  .00009545  00000-0  61680-3 0  9990,2 53288  53.2169 280.4494 0001600  88.5367 271.5808 15.08852900113205,6917.841,95.437,540.813,538.599,0.0
53288.0,STARLINK-4162,PAYLOAD,2024-08-04 13:04:44,15.0884723,0.0001696,53.2168,277.4763,92.8351,267.2835,0.00033835,5.102e-05,0.0,0 STARLINK-4162,1 53288U 22086AY  24217.54496162  .00005102  00000-0  33835-3 0  9990,2 53288  53.2168 277.4763 0001696  92.8351 267.2835 15.08847230113140,6917.858,95.437,540.897,538.55,0.0
53288.0,STARLINK-4162,PAYLOAD,2024-08-04 14:40:07,15.08850725,0.0001703,53.2164,277.1761,86.3008,273.8179,0.00046215,7.077e-05,0.0,0 STARLINK-4162,1 53288U 22086AY  24217.61120065  .00007077  00000-0  46215-3 0  9993,2 53288  53.2164 277.1761 0001703  86.3008 273.8179 15.08850725113313,6917.848,95.437,540.891,538.534,0.0
53288.0,STARLINK-4162,PAYLOAD,2024-08-04 21:01:39,15.08869157,0.0001659,53.216,275.9865,86.8196,273.2986,0.0010204,0.00016002,0.0,0 STARLINK-4162,1 53288U 22086AY  24217.87615620  .00016002  00000-0  10204-2 0  9993,2 53288  53.2160 275.9865 0001659  86.8196 273.2986 15.08869157113198,6917.791,95.436,540.804,538.509,0.0
53288.0,STARLINK-4162,PAYLOAD,2024-08-05 11:20:08,15.0885017,0.0001529,53.2157,273.3112,94.3983,265.7183,0.00024815,3.665e-05,0.0,0 STARLINK-4162,1 53288U 22086AY  24218.47231622  .00003665  00000-0  24815-3 0  9991,2 53288  53.2157 273.3112 0001529  94.3983 265.7183 15.08850170113285,6917.849,95.437,540.772,538.657,0.0
53288.0,STARLINK-4162,PAYLOAD,2024-08-05 20:52:26,15.08860762,0.0001527,53.215,271.5204,73.5348,286.5812,0.00048367,7.422e-05,0.0,0 STARLINK-4162,1 53288U 22086AY  24218.86975035  .00007422  00000-0  48367-3 0  9990,2 53288  53.2150 271.5204 0001527  73.5348 286.5812 15.08860762113505,6917.817,95.436,540.738,538.626,0.0
53288.0,STARLINK-4162,PAYLOAD,2024-08-06 12:46:18,15.08826267,0.0001361,53.2142,268.5511,87.1889,272.9259,0.00016985,2.415e-05,0.0,0 STARLINK-4162,1 53288U 22086AY  24219.53216090  .00002415  00000-0  16985-3 0  9992,2 53288  53.2142 268.5511 0001361  87.1889 272.9259 15.08826267113449,6917.922,95.438,540.729,538.846,0.0
53288.0,STARLINK-4162,PAYLOAD,2024-08-07 07:50:56,15.08847241,0.0001444,53.2139,264.9828,77.399,282.7163,0.0010696,0.00016779,0.0,0 STARLINK-4162,1 53288U 22086AY  24220.32704531  .00016779  00000-0  10696-2 0  9993,2 53288  53.2139 264.9828 0001444  77.3990 282.7163 15.08847241113563,6917.858,95.437,540.722,538.724,0.0
53288.0,STARLINK-4162,PAYLOAD,2024-08-08 09:17:06,15.08853348,0.0001398,53.2141,260.2241,77.3181,282.7968,0.00052225,8.036e-05,0.0,0 STARLINK-4162,1 53288U 22086AY  24221.38688087  .00008036  00000-0  52225-3 0  9999,2 53288  53.2141 260.2241 0001398  77.3181 282.7968 15.08853348113887,6917.84,95.437,540.672,538.737,0.0
53288.0,STARLINK-4162,PAYLOAD,2024-08-09 05:57:07,15.08844986,0.0001536,53.2159,256.3602,80.7359,279.3807,0.00036308,5.496e-05,0.0,0 STARLINK-4162,1 53288U 22086AY  24222.24800114  .00005496  00000-0  36308-3 0  9993,2 53288  53.2159 256.3602 0001536  80.7359 279.3807 15.08844986113851,6917.865,95.437,540.793,538.668,0.0
53288.0,STARLINK-4162,PAYLOAD,2024-08-09 09:07:53,15.0885256,0.0001577,53.2167,255.7692,85.6984,274.4188,0.00025447,3.766e-05,0.0,0 STARLINK-4162,1 53288U 22086AY  24222.38047805  .00003766  00000-0  25447-3 0  9998,2 53288  53.2167 255.7692 0001577  85.6984 274.4188 15.08852560114031,6917.842,95.437,540.798,538.616,0.0
53288.0,STARLINK-4162,PAYLOAD,2024-08-10 08:58:40,15.08828831,0.0001654,53.2162,251.3023,96.7334,263.3847,-0.00012587,-2.29e-05,0.0,0 STARLINK-4162,1 53288U 22086AY  24223.37408437 -.00002290  00000-0 -12587-3 0  9994,2 53288  53.2162 251.3023 0001654  96.7334 263.3847 15.08828831114026,6917.915,95.438,540.924,538.635,0.0
53288.0,STARLINK-4162,PAYLOAD,2024-08-11 12:00:13,15.08844398,0.000145,53.2153,246.2466,97.0247,263.091,0.00019035,2.743e-05,0.0,0 STARLINK-4162,1 53288U 22086AY  24224.50016053  .00002743  00000-0  19035-3 0  9995,2 53288  53.2153 246.2466 0001450  97.0247 263.0910 15.08844398114193,6917.867,95.437,540.735,538.729,0.0
53288.0,STARLINK-4162,PAYLOAD,2024-08-11 18:21:46,15.08855763,0.0001531,53.2164,245.0585,93.0401,267.0766,0.0004403,6.729e-05,0.0,0 STARLINK-4162,1 53288U 22086AY  24224.76511698  .00006729  00000-0  44030-3 0  9999,2 53288  53.2164 245.0585 0001531  93.0401 267.0766 15.08855763114395,6917.832,95.437,540.756,538.638,0.0
53288.0,STARLINK-4162,PAYLOAD,2024-08-12 10:15:37,15.08861039,0.0001803,53.2153,242.083,91.2656,268.8542,0.00062412,9.664e-05,0.0,0 STARLINK-4162,1 53288U 22086AY  24225.42751581  .00009664  00000-0  62412-3 0  9995,2 53288  53.2153 242.0830 0001803  91.2656 268.8542 15.08861039114492,6917.816,95.436,540.928,538.434,0.0
53288.0,STARLINK-4162,PAYLOAD,2024-08-12 18:12:32,15.0888554,0.0002482,53.2154,240.5981,75.7917,284.335,0.0015593,0.00024647,0.0,0 STARLINK-4162,1 53288U 22086AY  24225.75871022  .00024647  00000-0  15593-2 0  9999,2 53288  53.2154 240.5981 0002482  75.7917 284.3350 15.08885540114385,6917.741,95.435,541.323,537.889,0.0
53288.0,STARLINK-4162,PAYLOAD,2024-08-13 05:20:14,15.0882299,0.0001273,53.215,238.5165,79.5294,280.5842,-0.00018236,-3.188e-05,0.0,0 STARLINK-4162,1 53288U 22086AY  24226.22239512 -.00003188  00000-0 -18236-3 0  9991,2 53288  53.2150 238.5165 0001273  79.5294 280.5842 15.08822990114451,6917.932,95.439,540.678,538.917,0.0
53288.0,STARLINK-4162,PAYLOAD,2024-08-13 06:55:38,15.08822457,0.0001547,53.2148,238.2189,77.5532,282.5633,8.7008e-05,1.096e-05,0.0,0 STARLINK-4162,1 53288U 22086AY  24226.28863656  .00001096  00000-0  87008-4 0  9997,2 53288  53.2148 238.2189 0001547  77.5532 282.5633 15.08822457114625,6917.934,95.439,540.869,538.729,0.0
53288.0,STARLINK-4162,PAYLOAD,2024-08-13 18:03:20,15.08825076,0.000158,53.2146,236.1373,76.8329,283.2839,0.00083749,0.0001306,0.0,0 STARLINK-4162,1 53288U 22086AY  24226.75232311  .00013060  00000-0  83749-3 0  9998,2 53288  53.2146 236.1373 0001580  76.8329 283.2839 15.08825076114691,6917.926,95.438,540.884,538.698,0.0
53288.0,STARLINK-4162,PAYLOAD,2024-08-14 06:46:26,15.08832626,0.0001656,53.2148,233.7573,81.1637,278.9543,0.00073592,0.00011441,0.0,0 STARLINK-4162,1 53288U 22086AY  24227.28224854  .00011441  00000-0  73592-3 0  9996,2 53288  53.2148 233.7573 0001656  81.1637 278.9543 15.08832626114617,6917.903,95.438,540.914,538.622,0.0
53288.0,STARLINK-4162,PAYLOAD,2024-08-14 17:54:08,15.08835164,0.0001626,53.2145,231.6762,80.0275,280.09,0.00055126,8.495e-05,0.0,0 STARLINK-4162,1 53288U 22086AY  24227.74593134  .00008495  00000-0  55126-3 0  9995,2 53288  53.2145 231.6762 0001626  80.0275 280.0900 15.08835164114840,6917.895,95.438,540.885,538.635,0.0
53288.0,STARLINK-4162,PAYLOAD,2024-08-15 05:01:50,15.08841991,0.0001652,53.2146,229.5946,79.692,280.4259,0.0005358,8.25e-05,0.0,0 STARLINK-4162,1 53288U 22086AY  24228.20961171  .00008250  00000-0  53580-3 0  9998,2 53288  53.2146 229.5946 0001652  79.6920 280.4259 15.08841991114757,6917.874,95.437,540.882,538.596,0.0
53288.0,STARLINK-4162,PAYLOAD,2024-08-15 06:37:13,15.08842846,0.0001654,53.2147,229.2972,79.9315,280.1864,0.00051541,7.925e-05,0.0,0 STARLINK-4162,1 53288U 22086AY  24228.27585157  .00007925  00000-0  51541-3 0  9994,2 53288  53.2147 229.2972 0001654  79.9315 280.1864 15.08842846114925,6917.872,95.437,540.881,538.592,0.0
53288.0,STARLINK-4162,PAYLOAD,2024-08-15 17:44:55,15.08848904,0.0001667,53.2146,227.2152,80.8377,279.2804,0.00047967,7.356e-05,0.0,0 STARLINK-4162,1 53288U 22086AY  24228.73952945  .00007356  00000-0  47967-3 0  9993,2 53288  53.2146 227.2152 0001667  80.8377 279.2804 15.08848904114996,6917.853,95.437,540.871,538.565,0.0
53288.0,STARLINK-4162,PAYLOAD,2024-08-16 04:52:37,15.08839225,0.0001754,53.2151,225.1341,81.8847,278.2344,0.00010384,1.365e-05,0.0,0 STARLINK-4162,1 53288U 22086AY  24229.20321230  .00001365  00000-0  10384-3 0  9990,2 53288  53.2151 225.1341 0001754  81.8847 278.2344 15.08839225114904,6917.883,95.438,540.961,538.534,0.0
53288.0,STARLINK-4162,PAYLOAD,2024-08-16 06:28:00,15.08840297,0.0001751,53.2152,224.8364,83.2769,276.8423,0.00015822,2.231e-05,0.0,0 STARLINK-4162,1 53288U 22086AY  24229.26945245  .00002231  00000-0  15822-3 0  9999,2 53288  53.2152 224.8364 0001751  83.2769 276.8423 15.08840297115074,6917.879,95.438,540.956,538.533,0.0
